[{"OBJECT_NAME":"STARLINK-2705","OBJECT_ID":"2021-044AL","EPOCH":"2026-03-09T08:07:12.850752","MEAN_MOTION":15.31035302,"ECCENTRICITY":0.00015812,"INCLINATION":53.1598,"RA_OF_ASC_NODE":105.8091,"ARG_OF_PERICENTER":77.9359,"MEAN_ANOMALY":282.1819,"EPHEMERIS_TYPE":0,"CLASSIFICATION_TYPE":"U","NORAD_CAT_ID":48672,"ELEMENT_SET_NO":999,"REV_AT_EPOCH":26390,"BSTAR":-0.00015241071,"MEAN_MOTION_DOT":-4.992e-5,"MEAN_MOTION_DDOT":0},{"OBJECT_NAME":"CZ-4B DEB","OBJECT_ID":"1999-057H","EPOCH":"2026-03-09T17:25:29.363520","MEAN_MOTION":15.25756771,"ECCENTRICITY":0.00339549,"INCLINATION":98.6728,"RA_OF_ASC_NODE":149.1557,"ARG_OF_PERICENTER":175.409,"MEAN_ANOMALY":184.7463,"EPHEMERIS_TYPE":0,"CLASSIFICATION_TYPE":"U","NORAD_CAT_ID":26121,"ELEMENT_SET_NO":999,"REV_AT_EPOCH":41150,"BSTAR":0.00075758105,"MEAN_MOTION_DOT":0.00019602,"MEAN_MOTION_DDOT":0}]
